[{"OBJECT_NAME":"STARLINK-5333","OBJECT_ID":"2023-065E","EPOCH":"2026-03-08T17:07:49.144800","MEAN_MOTION":15.02513489,"ECCENTRICITY":0.0001451,"INCLINATION":43.0024,"RA_OF_ASC_NODE":176.9775,"ARG_OF_PERICENTER":264.6658,"MEAN_ANOMALY":95.4019,"EPHEMERIS_TYPE":0,"CLASSIFICATION_TYPE":"U","NORAD_CAT_ID":56507,"ELEMENT_SET_NO":999,"REV_AT_EPOCH":15692,"BSTAR":-0.00014921505,"MEAN_MOTION_DOT":-2.217e-5,"MEAN_MOTION_DDOT":0},{"OBJECT_NAME":"FENGYUN 1C DEB","OBJECT_ID":"1999-025FBF","EPOCH":"2026-03-06T07:33:49.292640","MEAN_MOTION":15.04395515,"ECCENTRICITY":0.01189701,"INCLINATION":98.9505,"RA_OF_ASC_NODE":84.7158,"ARG_OF_PERICENTER":75.0888,"MEAN_ANOMALY":286.3472,"EPHEMERIS_TYPE":0,"CLASSIFICATION_TYPE":"U","NORAD_CAT_ID":47029,"ELEMENT_SET_NO":999,"REV_AT_EPOCH":4330,"BSTAR":0.0027080259,"MEAN_MOTION_DOT":0.00044409,"MEAN_MOTION_DDOT":0}]
